0 FENGYUN 1C DEB
1 36237U 99025DVN 13283.08351791  .00004142  00000-0  12944-2 0  2533
2 36237 098.9298 022.1537 0090496 038.6734 322.0929 14.38977661256896
0 FENGYUN 1C DEB
1 36237U 99025DVN 13287.46402763  .00004277  00000-0  13345-2 0  2552
2 36237 098.9261 026.6963 0090869 023.4976 337.1500 14.39018892257528
0 FENGYUN 1C DEB
1 36237U 99025DVN 13289.13273292  .00004362  00000-0  13604-2 0  2565
2 36237 098.9279 028.4378 0090797 019.6218 340.8985 14.39035943257763
0 FENGYUN 1C DEB
1 36237U 99025DVN 13290.03660852  .00004441  00000-0  13845-2 0  2574
2 36237 098.9286 029.3833 0090820 017.7235 342.7825 14.39046607257899
0 FENGYUN 1C DEB
1 36237U 99025DVN 13293.09585514  .00004462  00000-0  13899-2 0  2587
2 36237 098.9293 032.5685 0090916 008.7550 351.5227 14.39074738258334
0 FENGYUN 1C DEB
1 36237U 99025DVN 13295.45978930  .00004741  00000-0  14661-2 0  2596
2 36237 098.9207 035.0010 0096505 357.9333 002.4072 14.39106381258674
